ONEWEB-0369             
1 49295U 21090S   23346.95039819  .00000072  00000+0  14687-3 0  9990
2 49295  87.9185 127.5431 0001380 104.3973 255.7313 13.19726606106724
ONEWEB-0370             
1 49296U 21090T   23347.36384032  .00000871  00000+0  21125-2 0  9998
2 49296  87.9214  96.9437 0001660 108.7892 251.3422 13.20679215110141
ONEWEB-0371             
1 49297U 21090U   23346.88249855  .00000006  00000+0 -16934-4 0  9993
2 49297  87.9186 127.5462 0001525 105.3601 254.7700 13.19724559105465
ONEWEB-0372             
1 49298U 21090V   23346.82248443 -.00000319  00000+0 -81672-3 0  9998
2 49298  87.9198  97.0604 0001754 119.9388 240.1920 13.20771021108740
ONEWEB-0373             
1 49299U 21090W   23347.37963902 -.00001687  00000+0 -41769-2 0  9995
2 49299  87.9246  96.9639 0001214  88.6249 271.5023 13.20861021111308
ONEWEB-0374             
1 49300U 21090X   23346.89941980  .00000161  00000+0  40002-3 0  9990
2 49300  87.8967 112.2946 0001504  96.6725 263.4576 13.14503370108349
ONEWEB-0375             
1 49301U 21090Y   23347.36702805 -.00000845  00000+0 -21069-2 0  9997
2 49301  87.9187  96.9468 0001700  73.8947 286.2373 13.20863785110799
ONEWEB-0376             
1 49302U 21090Z   23346.88089938 -.00000012  00000+0 -61565-4 0  9992
2 49302  87.9188 127.5650 0001386 110.3974 249.7308 13.19724296105463
