<?xml version="1.0" encoding="UTF-8"?>
<ndm xmlns:xsi="http://www.w3.org/2001/XMLSchema-instance" xsi:noNamespaceSchemaLocation="https://sanaregistry.org/r/ndmxml_unqualified/ndmxml-2.0.0-master-2.0.xsd">
<omm id="CCSDS_OMM_VERS" version="2.0">
<header><CREATION_DATE/><ORIGINATOR/></header><body><segment><metadata><OBJECT_NAME>ONEWEB-0369</OBJECT_NAME><OBJECT_ID>2021-090S</OBJECT_ID><CENTER_NAME>EARTH</CENTER_NAME><REF_FRAME>TEME</REF_FRAME><TIME_SYSTEM>UTC</TIME_SYSTEM><MEAN_ELEMENT_THEORY>SGP4</MEAN_ELEMENT_THEORY></metadata><data><meanElements><EPOCH>2023-12-12T22:48:34.403616</EPOCH><MEAN_MOTION>13.19726606</MEAN_MOTION><ECCENTRICITY>.000138</ECCENTRICITY><INCLINATION>87.9185</INCLINATION><RA_OF_ASC_NODE>127.5431</RA_OF_ASC_NODE><ARG_OF_PERICENTER>104.3973</ARG_OF_PERICENTER><MEAN_ANOMALY>255.7313</MEAN_ANOMALY></meanElements><tleParameters><EPHEMERIS_TYPE>0</EPHEMERIS_TYPE><CLASSIFICATION_TYPE>U</CLASSIFICATION_TYPE><NORAD_CAT_ID>49295</NORAD_CAT_ID><ELEMENT_SET_NO>999</ELEMENT_SET_NO><REV_AT_EPOCH>10672</REV_AT_EPOCH><BSTAR>.14687E-3</BSTAR><MEAN_MOTION_DOT>.72E-6</MEAN_MOTION_DOT><MEAN_MOTION_DDOT>0</MEAN_MOTION_DDOT></tleParameters></data></segment></body></omm>
<omm id="CCSDS_OMM_VERS" version="2.0">
<header><CREATION_DATE/><ORIGINATOR/></header><body><segment><metadata><OBJECT_NAME>ONEWEB-0370</OBJECT_NAME><OBJECT_ID>2021-090T</OBJECT_ID><CENTER_NAME>EARTH</CENTER_NAME><REF_FRAME>TEME</REF_FRAME><TIME_SYSTEM>UTC</TIME_SYSTEM><MEAN_ELEMENT_THEORY>SGP4</MEAN_ELEMENT_THEORY></metadata><data><meanElements><EPOCH>2023-12-13T08:43:55.803648</EPOCH><MEAN_MOTION>13.20679215</MEAN_MOTION><ECCENTRICITY>.000166</ECCENTRICITY><INCLINATION>87.9214</INCLINATION><RA_OF_ASC_NODE>96.9437</RA_OF_ASC_NODE><ARG_OF_PERICENTER>108.7892</ARG_OF_PERICENTER><MEAN_ANOMALY>251.3422</MEAN_ANOMALY></meanElements><tleParameters><EPHEMERIS_TYPE>0</EPHEMERIS_TYPE><CLASSIFICATION_TYPE>U</CLASSIFICATION_TYPE><NORAD_CAT_ID>49296</NORAD_CAT_ID><ELEMENT_SET_NO>999</ELEMENT_SET_NO><REV_AT_EPOCH>11014</REV_AT_EPOCH><BSTAR>.21125E-2</BSTAR><MEAN_MOTION_DOT>.871E-5</MEAN_MOTION_DOT><MEAN_MOTION_DDOT>0</MEAN_MOTION_DDOT></tleParameters></data></segment></body></omm>
<omm id="CCSDS_OMM_VERS" version="2.0">
<header><CREATION_DATE/><ORIGINATOR/></header><body><segment><metadata><OBJECT_NAME>ONEWEB-0371</OBJECT_NAME><OBJECT_ID>2021-090U</OBJECT_ID><CENTER_NAME>EARTH</CENTER_NAME><REF_FRAME>TEME</REF_FRAME><TIME_SYSTEM>UTC</TIME_SYSTEM><MEAN_ELEMENT_THEORY>SGP4</MEAN_ELEMENT_THEORY></metadata><data><meanElements><EPOCH>2023-12-12T21:10:47.874720</EPOCH><MEAN_MOTION>13.19724559</MEAN_MOTION><ECCENTRICITY>.0001525</ECCENTRICITY><INCLINATION>87.9186</INCLINATION><RA_OF_ASC_NODE>127.5462</RA_OF_ASC_NODE><ARG_OF_PERICENTER>105.3601</ARG_OF_PERICENTER><MEAN_ANOMALY>254.7700</MEAN_ANOMALY></meanElements><tleParameters><EPHEMERIS_TYPE>0</EPHEMERIS_TYPE><CLASSIFICATION_TYPE>U</CLASSIFICATION_TYPE><NORAD_CAT_ID>49297</NORAD_CAT_ID><ELEMENT_SET_NO>999</ELEMENT_SET_NO><REV_AT_EPOCH>10546</REV_AT_EPOCH><BSTAR>-.16934E-4</BSTAR><MEAN_MOTION_DOT>.6E-7</MEAN_MOTION_DOT><MEAN_MOTION_DDOT>0</MEAN_MOTION_DDOT></tleParameters></data></segment></body></omm>
<omm id="CCSDS_OMM_VERS" version="2.0">
<header><CREATION_DATE/><ORIGINATOR/></header><body><segment><metadata><OBJECT_NAME>ONEWEB-0372</OBJECT_NAME><OBJECT_ID>2021-090V</OBJECT_ID><CENTER_NAME>EARTH</CENTER_NAME><REF_FRAME>TEME</REF_FRAME><TIME_SYSTEM>UTC</TIME_SYSTEM><MEAN_ELEMENT_THEORY>SGP4</MEAN_ELEMENT_THEORY></metadata><data><meanElements><EPOCH>2023-12-12T19:44:22.654752</EPOCH><MEAN_MOTION>13.20771021</MEAN_MOTION><ECCENTRICITY>.0001754</ECCENTRICITY><INCLINATION>87.9198</INCLINATION><RA_OF_ASC_NODE>97.0604</RA_OF_ASC_NODE><ARG_OF_PERICENTER>119.9388</ARG_OF_PERICENTER><MEAN_ANOMALY>240.1920</MEAN_ANOMALY></meanElements><tleParameters><EPHEMERIS_TYPE>0</EPHEMERIS_TYPE><CLASSIFICATION_TYPE>U</CLASSIFICATION_TYPE><NORAD_CAT_ID>49298</NORAD_CAT_ID><ELEMENT_SET_NO>999</ELEMENT_SET_NO><REV_AT_EPOCH>10874</REV_AT_EPOCH><BSTAR>-.81672E-3</BSTAR><MEAN_MOTION_DOT>-.319E-5</MEAN_MOTION_DOT><MEAN_MOTION_DDOT>0</MEAN_MOTION_DDOT></tleParameters></data></segment></body></omm>
<omm id="CCSDS_OMM_VERS" version="2.0">
<header><CREATION_DATE/><ORIGINATOR/></header><body><segment><metadata><OBJECT_NAME>ONEWEB-0373</OBJECT_NAME><OBJECT_ID>2021-090W</OBJECT_ID><CENTER_NAME>EARTH</CENTER_NAME><REF_FRAME>TEME</REF_FRAME><TIME_SYSTEM>UTC</TIME_SYSTEM><MEAN_ELEMENT_THEORY>SGP4</MEAN_ELEMENT_THEORY></metadata><data><meanElements><EPOCH>2023-12-13T09:06:40.811328</EPOCH><MEAN_MOTION>13.20861021</MEAN_MOTION><ECCENTRICITY>.0001214</ECCENTRICITY><INCLINATION>87.9246</INCLINATION><RA_OF_ASC_NODE>96.9639</RA_OF_ASC_NODE><ARG_OF_PERICENTER>88.6249</ARG_OF_PERICENTER><MEAN_ANOMALY>271.5023</MEAN_ANOMALY></meanElements><tleParameters><EPHEMERIS_TYPE>0</EPHEMERIS_TYPE><CLASSIFICATION_TYPE>U</CLASSIFICATION_TYPE><NORAD_CAT_ID>49299</NORAD_CAT_ID><ELEMENT_SET_NO>999</ELEMENT_SET_NO><REV_AT_EPOCH>11130</REV_AT_EPOCH><BSTAR>-.41769E-2</BSTAR><MEAN_MOTION_DOT>-.1687E-4</MEAN_MOTION_DOT><MEAN_MOTION_DDOT>0</MEAN_MOTION_DDOT></tleParameters></data></segment></body></omm>
<omm id="CCSDS_OMM_VERS" version="2.0">
<header><CREATION_DATE/><ORIGINATOR/></header><body><segment><metadata><OBJECT_NAME>ONEWEB-0374</OBJECT_NAME><OBJECT_ID>2021-090X</OBJECT_ID><CENTER_NAME>EARTH</CENTER_NAME><REF_FRAME>TEME</REF_FRAME><TIME_SYSTEM>UTC</TIME_SYSTEM><MEAN_ELEMENT_THEORY>SGP4</MEAN_ELEMENT_THEORY></metadata><data><meanElements><EPOCH>2023-12-12T21:35:09.870720</EPOCH><MEAN_MOTION>13.14503370</MEAN_MOTION><ECCENTRICITY>.0001504</ECCENTRICITY><INCLINATION>87.8967</INCLINATION><RA_OF_ASC_NODE>112.2946</RA_OF_ASC_NODE><ARG_OF_PERICENTER>96.6725</ARG_OF_PERICENTER><MEAN_ANOMALY>263.4576</MEAN_ANOMALY></meanElements><tleParameters><EPHEMERIS_TYPE>0</EPHEMERIS_TYPE><CLASSIFICATION_TYPE>U</CLASSIFICATION_TYPE><NORAD_CAT_ID>49300</NORAD_CAT_ID><ELEMENT_SET_NO>999</ELEMENT_SET_NO><REV_AT_EPOCH>10834</REV_AT_EPOCH><BSTAR>.40002E-3</BSTAR><MEAN_MOTION_DOT>.161E-5</MEAN_MOTION_DOT><MEAN_MOTION_DDOT>0</MEAN_MOTION_DDOT></tleParameters></data></segment></body></omm>
<omm id="CCSDS_OMM_VERS" version="2.0">
<header><CREATION_DATE/><ORIGINATOR/></header><body><segment><metadata><OBJECT_NAME>ONEWEB-0375</OBJECT_NAME><OBJECT_ID>2021-090Y</OBJECT_ID><CENTER_NAME>EARTH</CENTER_NAME><REF_FRAME>TEME</REF_FRAME><TIME_SYSTEM>UTC</TIME_SYSTEM><MEAN_ELEMENT_THEORY>SGP4</MEAN_ELEMENT_THEORY></metadata><data><meanElements><EPOCH>2023-12-13T08:48:31.223520</EPOCH><MEAN_MOTION>13.20863785</MEAN_MOTION><ECCENTRICITY>.00017</ECCENTRICITY><INCLINATION>87.9187</INCLINATION><RA_OF_ASC_NODE>96.9468</RA_OF_ASC_NODE><ARG_OF_PERICENTER>73.8947</ARG_OF_PERICENTER><MEAN_ANOMALY>286.2373</MEAN_ANOMALY></meanElements><tleParameters><EPHEMERIS_TYPE>0</EPHEMERIS_TYPE><CLASSIFICATION_TYPE>U</CLASSIFICATION_TYPE><NORAD_CAT_ID>49301</NORAD_CAT_ID><ELEMENT_SET_NO>999</ELEMENT_SET_NO><REV_AT_EPOCH>11079</REV_AT_EPOCH><BSTAR>-.21069E-2</BSTAR><MEAN_MOTION_DOT>-.845E-5</MEAN_MOTION_DOT><MEAN_MOTION_DDOT>0</MEAN_MOTION_DDOT></tleParameters></data></segment></body></omm>
<omm id="CCSDS_OMM_VERS" version="2.0">
<header><CREATION_DATE/><ORIGINATOR/></header><body><segment><metadata><OBJECT_NAME>ONEWEB-0376</OBJECT_NAME><OBJECT_ID>2021-090Z</OBJECT_ID><CENTER_NAME>EARTH</CENTER_NAME><REF_FRAME>TEME</REF_FRAME><TIME_SYSTEM>UTC</TIME_SYSTEM><MEAN_ELEMENT_THEORY>SGP4</MEAN_ELEMENT_THEORY></metadata><data><meanElements><EPOCH>2023-12-12T21:08:29.706432</EPOCH><MEAN_MOTION>13.19724296</MEAN_MOTION><ECCENTRICITY>.0001386</ECCENTRICITY><INCLINATION>87.9188</INCLINATION><RA_OF_ASC_NODE>127.5650</RA_OF_ASC_NODE><ARG_OF_PERICENTER>110.3974</ARG_OF_PERICENTER><MEAN_ANOMALY>249.7308</MEAN_ANOMALY></meanElements><tleParameters><EPHEMERIS_TYPE>0</EPHEMERIS_TYPE><CLASSIFICATION_TYPE>U</CLASSIFICATION_TYPE><NORAD_CAT_ID>49302</NORAD_CAT_ID><ELEMENT_SET_NO>999</ELEMENT_SET_NO><REV_AT_EPOCH>10546</REV_AT_EPOCH><BSTAR>-.61565E-4</BSTAR><MEAN_MOTION_DOT>-.12E-6</MEAN_MOTION_DOT><MEAN_MOTION_DDOT>0</MEAN_MOTION_DDOT></tleParameters></data></segment></body></omm>

</ndm>
